1 29155U 06018A   12031.04859479 -.00000248  00000-0  10000-3 0  9292
2 29155 000.4012 080.8267 0001970 321.7862 030.0115 01.00271340 20862